CCSDS_OMM_VERS = 2.0
CREATION_DATE  = 
ORIGINATOR     = 

OBJECT_NAME    = SL-16 R/B
OBJECT_ID      = 2000-006B
CENTER_NAME    = EARTH
REF_FRAME      = TEME
TIME_SYSTEM    = UTC
MEAN_ELEMENT_THEORY = SGP/SGP4

EPOCH          = 2026-01-26T20:00:13.128192
MEAN_MOTION    = 14.15815181
ECCENTRICITY   = .00186029
INCLINATION    = 71.0011
RA_OF_ASC_NODE = 185.8430
ARG_OF_PERICENTER = 247.8678
MEAN_ANOMALY   = 112.0470

EPHEMERIS_TYPE = 0
CLASSIFICATION_TYPE = U
NORAD_CAT_ID   = 26070
ELEMENT_SET_NO = 999
REV_AT_EPOCH   = 34263
BSTAR          = .18950094E-3
MEAN_MOTION_DOT = .325E-5
MEAN_MOTION_DDOT = 0

CCSDS_OMM_VERS = 2.0
CREATION_DATE  = 
ORIGINATOR     = 

OBJECT_NAME    = TITAN 4B R/B
OBJECT_ID      = 2000-047B
CENTER_NAME    = EARTH
REF_FRAME      = TEME
TIME_SYSTEM    = UTC
MEAN_ELEMENT_THEORY = SGP/SGP4

EPOCH          = 2026-01-27T06:43:31.001088
MEAN_MOTION    = 15.09197553
ECCENTRICITY   = .00367852
INCLINATION    = 67.9889
RA_OF_ASC_NODE = 156.9185
ARG_OF_PERICENTER = 87.1795
MEAN_ANOMALY   = 273.3563

EPHEMERIS_TYPE = 0
CLASSIFICATION_TYPE = U
NORAD_CAT_ID   = 26474
ELEMENT_SET_NO = 999
REV_AT_EPOCH   = 38666
BSTAR          = .41189894E-3
MEAN_MOTION_DOT = .6537E-4
MEAN_MOTION_DDOT = 0

CCSDS_OMM_VERS = 2.0
CREATION_DATE  = 
ORIGINATOR     = 

OBJECT_NAME    = ENVISAT
OBJECT_ID      = 2002-009A
CENTER_NAME    = EARTH
REF_FRAME      = TEME
TIME_SYSTEM    = UTC
MEAN_ELEMENT_THEORY = SGP/SGP4

EPOCH          = 2026-01-27T07:44:49.237440
MEAN_MOTION    = 14.39020280
ECCENTRICITY   = .00012341
INCLINATION    = 98.3662
RA_OF_ASC_NODE = 341.9233
ARG_OF_PERICENTER = 91.7320
MEAN_ANOMALY   = 34.3093

EPHEMERIS_TYPE = 0
CLASSIFICATION_TYPE = U
NORAD_CAT_ID   = 27386
ELEMENT_SET_NO = 999
REV_AT_EPOCH   = 25322
BSTAR          = .10161023E-3
MEAN_MOTION_DOT = .271E-5
MEAN_MOTION_DDOT = 0

CCSDS_OMM_VERS = 2.0
CREATION_DATE  = 
ORIGINATOR     = 

OBJECT_NAME    = IDEFIX & ARIANE 42P R/B
OBJECT_ID      = 2002-021B
CENTER_NAME    = EARTH
REF_FRAME      = TEME
TIME_SYSTEM    = UTC
MEAN_ELEMENT_THEORY = SGP/SGP4

EPOCH          = 2026-01-27T07:30:07.543584
MEAN_MOTION    = 14.30993621
ECCENTRICITY   = .00110716
INCLINATION    = 98.5831
RA_OF_ASC_NODE = 326.4244
ARG_OF_PERICENTER = 313.8496
MEAN_ANOMALY   = 46.1771

EPHEMERIS_TYPE = 0
CLASSIFICATION_TYPE = U
NORAD_CAT_ID   = 27422
ELEMENT_SET_NO = 999
REV_AT_EPOCH   = 23810
BSTAR          = .23726971E-3
MEAN_MOTION_DOT = .581E-5
MEAN_MOTION_DDOT = 0

CCSDS_OMM_VERS = 2.0
CREATION_DATE  = 
ORIGINATOR     = 

OBJECT_NAME    = AQUA
OBJECT_ID      = 2002-022A
CENTER_NAME    = EARTH
REF_FRAME      = TEME
TIME_SYSTEM    = UTC
MEAN_ELEMENT_THEORY = SGP/SGP4

EPOCH          = 2026-01-27T06:58:27.686208
MEAN_MOTION    = 14.61866390
ECCENTRICITY   = .00018499
INCLINATION    = 98.4102
RA_OF_ASC_NODE = 353.9260
ARG_OF_PERICENTER = 63.9098
MEAN_ANOMALY   = 72.6772

EPHEMERIS_TYPE = 0
CLASSIFICATION_TYPE = U
NORAD_CAT_ID   = 27424
ELEMENT_SET_NO = 999
REV_AT_EPOCH   = 26268
BSTAR          = .38917151E-3
MEAN_MOTION_DOT = .1896E-4
MEAN_MOTION_DDOT = 0

CCSDS_OMM_VERS = 2.0
CREATION_DATE  = 
ORIGINATOR     = 

OBJECT_NAME    = CZ-4B R/B
OBJECT_ID      = 2002-024C
CENTER_NAME    = EARTH
REF_FRAME      = TEME
TIME_SYSTEM    = UTC
MEAN_ELEMENT_THEORY = SGP/SGP4

EPOCH          = 2026-01-27T03:02:07.564416
MEAN_MOTION    = 14.14539470
ECCENTRICITY   = .00508489
INCLINATION    = 98.8929
RA_OF_ASC_NODE = 80.7246
ARG_OF_PERICENTER = 140.2881
MEAN_ANOMALY   = 275.0283

EPHEMERIS_TYPE = 0
CLASSIFICATION_TYPE = U
NORAD_CAT_ID   = 27432
ELEMENT_SET_NO = 999
REV_AT_EPOCH   = 22336
BSTAR          = .71971521E-4
MEAN_MOTION_DOT = .96E-6
MEAN_MOTION_DDOT = 0

CCSDS_OMM_VERS = 2.0
CREATION_DATE  = 
ORIGINATOR     = 

OBJECT_NAME    = MIDORI II (ADEOS-II)
OBJECT_ID      = 2002-056A
CENTER_NAME    = EARTH
REF_FRAME      = TEME
TIME_SYSTEM    = UTC
MEAN_ELEMENT_THEORY = SGP/SGP4

EPOCH          = 2026-01-27T06:58:10.994592
MEAN_MOTION    = 14.29250542
ECCENTRICITY   = .00020088
INCLINATION    = 98.7701
RA_OF_ASC_NODE = 345.5019
ARG_OF_PERICENTER = 101.2342
MEAN_ANOMALY   = 258.9065

EPHEMERIS_TYPE = 0
CLASSIFICATION_TYPE = U
NORAD_CAT_ID   = 27597
ELEMENT_SET_NO = 999
REV_AT_EPOCH   = 20438
BSTAR          = .26634035E-3
MEAN_MOTION_DOT = .632E-5
MEAN_MOTION_DDOT = 0

CCSDS_OMM_VERS = 2.0
CREATION_DATE  = 
ORIGINATOR     = 

OBJECT_NAME    = H-2A R/B
OBJECT_ID      = 2002-056E
CENTER_NAME    = EARTH
REF_FRAME      = TEME
TIME_SYSTEM    = UTC
MEAN_ELEMENT_THEORY = SGP/SGP4

EPOCH          = 2026-01-27T08:04:02.866656
MEAN_MOTION    = 14.33727584
ECCENTRICITY   = .00690751
INCLINATION    = 98.3130
RA_OF_ASC_NODE = 349.2954
ARG_OF_PERICENTER = 285.2345
MEAN_ANOMALY   = 202.4599

EPHEMERIS_TYPE = 0
CLASSIFICATION_TYPE = U
NORAD_CAT_ID   = 27601
ELEMENT_SET_NO = 999
REV_AT_EPOCH   = 20818
BSTAR          = .24666814E-3
MEAN_MOTION_DOT = .661E-5
MEAN_MOTION_DDOT = 0

CCSDS_OMM_VERS = 2.0
CREATION_DATE  = 
ORIGINATOR     = 

OBJECT_NAME    = CZ-4B R/B
OBJECT_ID      = 2003-049C
CENTER_NAME    = EARTH
REF_FRAME      = TEME
TIME_SYSTEM    = UTC
MEAN_ELEMENT_THEORY = SGP/SGP4

EPOCH          = 2026-01-26T23:38:07.850976
MEAN_MOTION    = 14.54968553
ECCENTRICITY   = .00482652
INCLINATION    = 98.6831
RA_OF_ASC_NODE = 20.2697
ARG_OF_PERICENTER = 0.4185
MEAN_ANOMALY   = 359.7043

EPHEMERIS_TYPE = 0
CLASSIFICATION_TYPE = U
NORAD_CAT_ID   = 28059
ELEMENT_SET_NO = 999
REV_AT_EPOCH   = 18053
BSTAR          = .20392272E-3
MEAN_MOTION_DOT = .839E-5
MEAN_MOTION_DDOT = 0

CCSDS_OMM_VERS = 2.0
CREATION_DATE  = 
ORIGINATOR     = 

OBJECT_NAME    = CZ-2C R/B
OBJECT_ID      = 2004-012C
CENTER_NAME    = EARTH
REF_FRAME      = TEME
TIME_SYSTEM    = UTC
MEAN_ELEMENT_THEORY = SGP/SGP4

EPOCH          = 2026-01-27T06:59:05.191584
MEAN_MOTION    = 15.59806031
ECCENTRICITY   = .00169305
INCLINATION    = 97.7340
RA_OF_ASC_NODE = 88.7966
ARG_OF_PERICENTER = 103.0900
MEAN_ANOMALY   = 257.2246

EPHEMERIS_TYPE = 0
CLASSIFICATION_TYPE = U
NORAD_CAT_ID   = 28222
ELEMENT_SET_NO = 999
REV_AT_EPOCH   = 19781
BSTAR          = .74109386E-3
MEAN_MOTION_DOT = .60046E-3
MEAN_MOTION_DDOT = 0

CCSDS_OMM_VERS = 2.0
CREATION_DATE  = 
ORIGINATOR     = 

OBJECT_NAME    = SL-16 R/B
OBJECT_ID      = 2004-021B
CENTER_NAME    = EARTH
REF_FRAME      = TEME
TIME_SYSTEM    = UTC
MEAN_ELEMENT_THEORY = SGP/SGP4

EPOCH          = 2026-01-27T05:33:21.386592
MEAN_MOTION    = 14.14591286
ECCENTRICITY   = .00026338
INCLINATION    = 71.0024
RA_OF_ASC_NODE = 319.4977
ARG_OF_PERICENTER = 114.4446
MEAN_ANOMALY   = 245.6951

EPHEMERIS_TYPE = 0
CLASSIFICATION_TYPE = U
NORAD_CAT_ID   = 28353
ELEMENT_SET_NO = 999
REV_AT_EPOCH   = 11697
BSTAR          = -.76399964E-4
MEAN_MOTION_DOT = -.194E-5
MEAN_MOTION_DDOT = 0

CCSDS_OMM_VERS = 2.0
CREATION_DATE  = 
ORIGINATOR     = 

OBJECT_NAME    = CZ-4B R/B
OBJECT_ID      = 2004-035C
CENTER_NAME    = EARTH
REF_FRAME      = TEME
TIME_SYSTEM    = UTC
MEAN_ELEMENT_THEORY = SGP/SGP4

EPOCH          = 2026-01-27T01:56:58.019712
MEAN_MOTION    = 15.28263433
ECCENTRICITY   = .00342731
INCLINATION    = 97.3570
RA_OF_ASC_NODE = 61.8352
ARG_OF_PERICENTER = 115.1442
MEAN_ANOMALY   = 245.3360

EPHEMERIS_TYPE = 0
CLASSIFICATION_TYPE = U
NORAD_CAT_ID   = 28415
ELEMENT_SET_NO = 999
REV_AT_EPOCH   = 17355
BSTAR          = .40874326E-3
MEAN_MOTION_DOT = .11383E-3
MEAN_MOTION_DDOT = 0

CCSDS_OMM_VERS = 2.0
CREATION_DATE  = 
ORIGINATOR     = 

OBJECT_NAME    = CZ-2C R/B
OBJECT_ID      = 2004-046B
CENTER_NAME    = EARTH
REF_FRAME      = TEME
TIME_SYSTEM    = UTC
MEAN_ELEMENT_THEORY = SGP/SGP4

EPOCH          = 2026-01-26T16:40:19.933824
MEAN_MOTION    = 14.26974488
ECCENTRICITY   = .01382398
INCLINATION    = 98.1999
RA_OF_ASC_NODE = 304.2850
ARG_OF_PERICENTER = 279.2198
MEAN_ANOMALY   = 79.3371

EPHEMERIS_TYPE = 0
CLASSIFICATION_TYPE = U
NORAD_CAT_ID   = 28480
ELEMENT_SET_NO = 999
REV_AT_EPOCH   = 10251
BSTAR          = .14025433E-3
MEAN_MOTION_DOT = .335E-5
MEAN_MOTION_DDOT = 0

CCSDS_OMM_VERS = 2.0
CREATION_DATE  = 
ORIGINATOR     = 

OBJECT_NAME    = ARIANE 5 R/B
OBJECT_ID      = 2004-049H
CENTER_NAME    = EARTH
REF_FRAME      = TEME
TIME_SYSTEM    = UTC
MEAN_ELEMENT_THEORY = SGP/SGP4

EPOCH          = 2026-01-27T04:47:40.246368
MEAN_MOTION    = 14.85167604
ECCENTRICITY   = .00853021
INCLINATION    = 98.2558
RA_OF_ASC_NODE = 194.1237
ARG_OF_PERICENTER = 125.1092
MEAN_ANOMALY   = 235.8156

EPHEMERIS_TYPE = 0
CLASSIFICATION_TYPE = U
NORAD_CAT_ID   = 28499
ELEMENT_SET_NO = 999
REV_AT_EPOCH   = 13963
BSTAR          = .25094663E-3
MEAN_MOTION_DOT = .223E-4
MEAN_MOTION_DDOT = 0

CCSDS_OMM_VERS = 2.0
CREATION_DATE  = 
ORIGINATOR     = 

OBJECT_NAME    = CZ-2D R/B
OBJECT_ID      = 2005-024B
CENTER_NAME    = EARTH
REF_FRAME      = TEME
TIME_SYSTEM    = UTC
MEAN_ELEMENT_THEORY = SGP/SGP4

EPOCH          = 2026-01-27T06:57:54.584640
MEAN_MOTION    = 15.56514485
ECCENTRICITY   = .00060841
INCLINATION    = 97.3628
RA_OF_ASC_NODE = 41.0349
ARG_OF_PERICENTER = 148.8281
MEAN_ANOMALY   = 211.3336

EPHEMERIS_TYPE = 0
CLASSIFICATION_TYPE = U
NORAD_CAT_ID   = 28738
ELEMENT_SET_NO = 999
REV_AT_EPOCH   = 13333
BSTAR          = .64871957E-3
MEAN_MOTION_DOT = .46103E-3
MEAN_MOTION_DDOT = 0

